STARLINK-30069          
1 56834U 23079M   26067.48212902 -.00002416  00000+0 -80472-4 0  9995
2 56834  42.9986 110.4464 0000469 272.6695  87.4103 15.26726881152740
STARLINK-31419          
1 59368U 24060W   26068.55668514  .00000192  00000+0  16511-4 0  9994
2 59368  42.9977 260.5051 0001152 278.1089  81.9632 15.27578794110044
