[{"OBJECT_NAME":"STARLINK-30069","OBJECT_ID":"2023-079M","EPOCH":"2026-03-08T11:34:15.947328","MEAN_MOTION":15.26726881,"ECCENTRICITY":4.69e-5,"INCLINATION":42.9986,"RA_OF_ASC_NODE":110.4464,"ARG_OF_PERICENTER":272.6695,"MEAN_ANOMALY":87.4103,"EPHEMERIS_TYPE":0,"CLASSIFICATION_TYPE":"U","NORAD_CAT_ID":56834,"ELEMENT_SET_NO":999,"REV_AT_EPOCH":15274,"BSTAR":-8.0472e-5,"MEAN_MOTION_DOT":-2.416e-5,"MEAN_MOTION_DDOT":0},{"OBJECT_NAME":"STARLINK-31419","OBJECT_ID":"2024-060W","EPOCH":"2026-03-09T13:21:37.596096","MEAN_MOTION":15.27578794,"ECCENTRICITY":0.00011522,"INCLINATION":42.9977,"RA_OF_ASC_NODE":260.5051,"ARG_OF_PERICENTER":278.1089,"MEAN_ANOMALY":81.9632,"EPHEMERIS_TYPE":0,"CLASSIFICATION_TYPE":"U","NORAD_CAT_ID":59368,"ELEMENT_SET_NO":999,"REV_AT_EPOCH":11004,"BSTAR":1.651149e-5,"MEAN_MOTION_DOT":1.92e-6,"MEAN_MOTION_DDOT":0}]
